{"type": "FeatureCollection", "features": [ {"type": "Feature", "properties": {"norad_id": 37834, "name": "INTELSAT 18 (IS-18)", "group": "intelsat", "lat": 0.005160854553534611, "lon": 134.2360015968502, "alt_km": 35792.95113350546, "timestamp": "2025-12-24T14:43:28.663481+00:00", "meta": {"OBJECT_NAME": "INTELSAT 18 (IS-18)", "OBJECT_ID": "2011-056A", "EPOCH": "2025-12-24T06:00:16.855776", "MEAN_MOTION": 1.00271571, "ECCENTRICITY": 0.00017959, "INCLINATION": 0.0236, "RA_OF_ASC_NODE": 287.3564, "ARG_OF_PERICENTER": 1.0797, "MEAN_ANOMALY": 74.6583, "EPHEMERIS_TYPE": 0, "CLASSIFICATION_TYPE": "U", "NORAD_CAT_ID": 37834, "ELEMENT_SET_NO": 999, "REV_AT_EPOCH": 5205, "BSTAR": 0, "MEAN_MOTION_DOT": 7.4e-07, "MEAN_MOTION_DDOT": 0}, "tle": {"line1": "1 37834U 11056A   25358.25019509  .00000074  00000+0  00000+0 0  9991", "line2": "2 37834   0.0236 287.3564 0001795   1.0797  74.6583  1.00271571 52058"}}, "geometry": {"type": "Point", "coordinates": [134.2360015968502, 0.005160854553534611]}}, {"type": "Feature", "properties": {"norad_id": 38098, "name": "INTELSAT 22 (IS-22)", "group": "intelsat", "lat": -0.005786083932851929, "lon": 26.35491346360469, "alt_km": 35786.49806680874, "timestamp": "2025-12-24T14:43:28.663494+00:00", "meta": {"OBJECT_NAME": "INTELSAT 22 (IS-22)", "OBJECT_ID": "2012-011A", "EPOCH": "2025-12-24T01:56:51.561312", "MEAN_MOTION": 1.00270449, "ECCENTRICITY": 0.00019329, "INCLINATION": 0.0277, "RA_OF_ASC_NODE": 43.4014, "ARG_OF_PERICENTER": 252.7744, "MEAN_ANOMALY": 257.9865, "EPHEMERIS_TYPE": 0, "CLASSIFICATION_TYPE": "U", "NORAD_CAT_ID": 38098, "ELEMENT_SET_NO": 999, "REV_AT_EPOCH": 543, "BSTAR": 0, "MEAN_MOTION_DOT": 0, "MEAN_MOTION_DDOT": 0}, "tle": {"line1": "1 38098U 12011A   25358.08115233  .00000000  00000+0  00000+0 0  9997", "line2": "2 38098   0.0277  43.4014 0001932 252.7744 257.9865  1.00270449  5439"}}, "geometry": {"type": "Point", "coordinates": [26.35491346360469, -0.005786083932851929]}}, {"type": "Feature", "properties": {"norad_id": 38356, "name": "INTELSAT 19 (IS-19)", "group": "intelsat", "lat": 0.0194730670496266, "lon": 120.23735196981576, "alt_km": 35796.529230197826, "timestamp": "2025-12-24T14:43:28.663506+00:00", "meta": {"OBJECT_NAME": "INTELSAT 19 (IS-19)", "OBJECT_ID": "2012-030A", "EPOCH": "2025-12-24T05:19:49.790784", "MEAN_MOTION": 1.002721, "ECCENTRICITY": 0.00028904, "INCLINATION": 0.0139, "RA_OF_ASC_NODE": 323.1097, "ARG_OF_PERICENTER": 306.5362, "MEAN_ANOMALY": 69.3166, "EPHEMERIS_TYPE": 0, "CLASSIFICATION_TYPE": "U", "NORAD_CAT_ID": 38356, "ELEMENT_SET_NO": 999, "REV_AT_EPOCH": 4869, "BSTAR": 0, "MEAN_MOTION_DOT": -3.5e-07, "MEAN_MOTION_DDOT": 0}, "tle": {"line1": "1 38356U 12030A   25358.22210406 -.00000035  00000+0  00000+0 0  9998", "line2": "2 38356   0.0139 323.1097 0002890 306.5362  69.3166  1.00272100 48690"}}, "geometry": {"type": "Point", "coordinates": [120.23735196981576, 0.0194730670496266]}}, {"type": "Feature", "properties": {"norad_id": 38740, "name": "INTELSAT 20 (IS-20)", "group": "intelsat", "lat": -0.006957292674288625, "lon": 22.731202785843692, "alt_km": 35796.880520332554, "timestamp": "2025-12-24T14:43:28.663518+00:00", "meta": {"OBJECT_NAME": "INTELSAT 20 (IS-20)", "OBJECT_ID": "2012-043A", "EPOCH": "2025-12-24T04:51:59.956992", "MEAN_MOTION": 1.00271701, "ECCENTRICITY": 0.00027221, "INCLINATION": 0.0113, "RA_OF_ASC_NODE": 58.3844, "ARG_OF_PERICENTER": 125.0984, "MEAN_ANOMALY": 50.9907, "EPHEMERIS_TYPE": 0, "CLASSIFICATION_TYPE": "U", "NORAD_CAT_ID": 38740, "ELEMENT_SET_NO": 999, "REV_AT_EPOCH": 4899, "BSTAR": 0, "MEAN_MOTION_DOT": -3e-08, "MEAN_MOTION_DDOT": 0}, "tle": {"line1": "1 38740U 12043A   25358.20277728 -.00000003  00000+0  00000+0 0  9992", "line2": "2 38740   0.0113  58.3844 0002722 125.0984  50.9907  1.00271701 48992"}}, "geometry": {"type": "Point", "coordinates": [22.731202785843692, -0.006957292674288625]}}, {"type": "Feature", "properties": {"norad_id": 38749, "name": "INTELSAT 21 (IS-21)", "group": "intelsat", "lat": -0.02242090397904095, "lon": -103.74190354548685, "alt_km": 35778.76595834449, "timestamp": "2025-12-24T14:43:28.663530+00:00", "meta": {"OBJECT_NAME": "INTELSAT 21 (IS-21)", "OBJECT_ID": "2012-045A", "EPOCH": "2025-12-24T05:58:31.084032", "MEAN_MOTION": 1.00273058, "ECCENTRICITY": 0.00016655, "INCLINATION": 0.0142, "RA_OF_ASC_NODE": 305.8684, "ARG_OF_PERICENTER": 316.6574, "MEAN_ANOMALY": 222.1401, "EPHEMERIS_TYPE": 0, "CLASSIFICATION_TYPE": "U", "NORAD_CAT_ID": 38749, "ELEMENT_SET_NO": 999, "REV_AT_EPOCH": 4877, "BSTAR": 0, "MEAN_MOTION_DOT": -2.64e-06, "MEAN_MOTION_DDOT": 0}, "tle": {"line1": "1 38749U 12045A   25358.24897088 -.00000264  00000+0  00000+0 0  9993", "line2": "2 38749   0.0142 305.8684 0001665 316.6574 222.1401  1.00273058 48778"}}, "geometry": {"type": "Point", "coordinates": [-103.74190354548685, -0.02242090397904095]}}, {"type": "Feature", "properties": {"norad_id": 38867, "name": "INTELSAT 23 (IS-23)", "group": "intelsat", "lat": -0.025240674988811912, "lon": -98.77534083485602, "alt_km": 35790.875862950845, "timestamp": "2025-12-24T14:43:28.663541+00:00", "meta": {"OBJECT_NAME": "INTELSAT 23 (IS-23)", "OBJECT_ID": "2012-057A", "EPOCH": "2025-12-24T06:00:30.893184", "MEAN_MOTION": 1.00259571, "ECCENTRICITY": 3.226e-05, "INCLINATION": 0.0157, "RA_OF_ASC_NODE": 47.8296, "ARG_OF_PERICENTER": 47.4441, "MEAN_ANOMALY": 34.8739, "EPHEMERIS_TYPE": 0, "CLASSIFICATION_TYPE": "U", "NORAD_CAT_ID": 38867, "ELEMENT_SET_NO": 999, "REV_AT_EPOCH": 4820, "BSTAR": 0, "MEAN_MOTION_DOT": -2.64e-06, "MEAN_MOTION_DDOT": 0}, "tle": {"line1": "1 38867U 12057A   25358.25035756 -.00000264  00000+0  00000+0 0  9994", "line2": "2 38867   0.0157  47.8296 0000322  47.4441  34.8739  1.00259571 48202"}}, "geometry": {"type": "Point", "coordinates": [-98.77534083485602, -0.025240674988811912]}}, {"type": "Feature", "properties": {"norad_id": 39360, "name": "FM-6", "group": "intelsat", "lat": 0.013152875216924364, "lon": -161.9152465372152, "alt_km": 35775.043588586115, "timestamp": "2025-12-24T14:43:28.663553+00:00", "meta": {"OBJECT_NAME": "FM-6", "OBJECT_ID": "2013-058A", "EPOCH": "2025-12-24T05:59:38.935680", "MEAN_MOTION": 1.00270521, "ECCENTRICITY": 0.00029846, "INCLINATION": 0.0166, "RA_OF_ASC_NODE": 70.249, "ARG_OF_PERICENTER": 103.1818, "MEAN_ANOMALY": 253.332, "EPHEMERIS_TYPE": 0, "CLASSIFICATION_TYPE": "U", "NORAD_CAT_ID": 39360, "ELEMENT_SET_NO": 999, "REV_AT_EPOCH": 4431, "BSTAR": 0, "MEAN_MOTION_DOT": 4e-08, "MEAN_MOTION_DDOT": 0}, "tle": {"line1": "1 39360U 13058A   25358.24975620  .00000004  00000+0  00000+0 0  9998", "line2": "2 39360   0.0166  70.2490 0002984 103.1818 253.3320  1.00270521 44311"}}, "geometry": {"type": "Point", "coordinates": [-161.9152465372152, 0.013152875216924364]}}, {"type": "Feature", "properties": {"norad_id": 40271, "name": "INTELSAT 30 (IS-30)", "group": "intelsat", "lat": -0.01088894157033572, "lon": -140.7959149834025, "alt_km": 35790.74009502646, "timestamp": "2025-12-24T14:43:28.663565+00:00", "meta": {"OBJECT_NAME": "INTELSAT 30 (IS-30)", "OBJECT_ID": "2014-062A", "EPOCH": "2025-12-24T07:00:35.482176", "MEAN_MOTION": 1.00269786, "ECCENTRICITY": 0.00015421, "INCLINATION": 0.0134, "RA_OF_ASC_NODE": 27.2277, "ARG_OF_PERICENTER": 63.2332, "MEAN_ANOMALY": 12.6997, "EPHEMERIS_TYPE": 0, "CLASSIFICATION_TYPE": "U", "NORAD_CAT_ID": 40271, "ELEMENT_SET_NO": 999, "REV_AT_EPOCH": 504, "BSTAR": 0, "MEAN_MOTION_DOT": -1.3e-06, "MEAN_MOTION_DDOT": 0}, "tle": {"line1": "1 40271U 14062A   25358.29207734 -.00000130  00000+0  00000+0 0  9997", "line2": "2 40271   0.0134  27.2277 0001542  63.2332  12.6997  1.00269786  5044"}}, "geometry": {"type": "Point", "coordinates": [-140.7959149834025, -0.01088894157033572]}}, {"type": "Feature", "properties": {"norad_id": 40333, "name": "DIRECTV 14", "group": "intelsat", "lat": -0.004600361734538236, "lon": -144.97470486919673, "alt_km": 35788.36796177499, "timestamp": "2025-12-24T14:43:28.663576+00:00", "meta": {"OBJECT_NAME": "DIRECTV 14", "OBJECT_ID": "2014-078B", "EPOCH": "2025-12-24T05:46:54.695712", "MEAN_MOTION": 1.00265111, "ECCENTRICITY": 2.383e-05, "INCLINATION": 0.0019, "RA_OF_ASC_NODE": 34.998, "ARG_OF_PERICENTER": 66.4789, "MEAN_ANOMALY": 339.0525, "EPHEMERIS_TYPE": 0, "CLASSIFICATION_TYPE": "U", "NORAD_CAT_ID": 40333, "ELEMENT_SET_NO": 999, "REV_AT_EPOCH": 4028, "BSTAR": 0, "MEAN_MOTION_DOT": -1.04e-06, "MEAN_MOTION_DDOT": 0}, "tle": {"line1": "1 40333U 14078B   25358.24091083 -.00000104  00000+0  00000+0 0  9997", "line2": "2 40333   0.0019  34.9980 0000238  66.4789 339.0525  1.00265111 40289"}}, "geometry": {"type": "Point", "coordinates": [-144.97470486919673, -0.004600361734538236]}}, {"type": "Feature", "properties": {"norad_id": 40663, "name": "DIRECTV 15", "group": "intelsat", "lat": -0.010394913800793729, "lon": -148.63478383000654, "alt_km": 35785.567033620886, "timestamp": "2025-12-24T14:43:28.663587+00:00", "meta": {"OBJECT_NAME": "DIRECTV 15", "OBJECT_ID": "2015-026A", "EPOCH": "2025-12-24T05:45:47.302848", "MEAN_MOTION": 1.00268312, "ECCENTRICITY": 5.031e-05, "INCLINATION": 0.0214, "RA_OF_ASC_NODE": 20.6929, "ARG_OF_PERICENTER": 145.8822, "MEAN_ANOMALY": 270.0068, "EPHEMERIS_TYPE": 0, "CLASSIFICATION_TYPE": "U", "NORAD_CAT_ID": 40663, "ELEMENT_SET_NO": 999, "REV_AT_EPOCH": 3870, "BSTAR": 0, "MEAN_MOTION_DOT": 0, "MEAN_MOTION_DDOT": 0}, "tle": {"line1": "1 40663U 15026A   25358.24013082  .00000000  00000+0  00000+0 0  9994", "line2": "2 40663   0.0214  20.6929 0000503 145.8822 270.0068  1.00268312 38708"}}, "geometry": {"type": "Point", "coordinates": [-148.63478383000654, -0.010394913800793729]}}]}